{
  "type": "FeatureCollection",
  "features": [
    {
      "type": "Feature",
      "properties": {
        "norad_id": 66531,
        "name": "STARLINK-35960",
        "group": "last-30-days",
        "lat": -42.23358578909679,
        "lon": -29.602048444014503,
        "alt_km": 410.87914026472845,
        "timestamp": "2025-12-09T09:46:46.421943+00:00",
        "meta_object_name": "STARLINK-35960",
        "meta_object_id": "2025-265R",
        "meta_epoch": "2025-12-09T04:00:01.998720",
        "meta_mean_motion": 15.53831311,
        "meta_eccentricity": 0.0001553,
        "meta_inclination": 43.0002,
        "meta_ra_of_asc_node": 74.8553,
        "meta_arg_of_pericenter": 265.0341,
        "meta_mean_anomaly": 87.228,
        "meta_ephemeris_type": 0,
        "meta_classification_type": "U",
        "meta_norad_cat_id": 66531,
        "meta_element_set_no": 999,
        "meta_rev_at_epoch": 442,
        "meta_bstar": -0.033432,
        "meta_mean_motion_dot": -0.01975108,
        "meta_mean_motion_ddot": 0,
        "tle_line1": "1 66531U 25265R   25343.16668980 -.01975108  00000+0 -33432-1 0  9990",
        "tle_line2": "2 66531  43.0002  74.8553 0001553 265.0341  87.2280 15.53831311  4427"
      },
      "geometry": {
        "type": "Point",
        "coordinates": [
          -29.602048444014503,
          -42.23358578909679
        ]
      }
    },
    {
      "type": "Feature",
      "properties": {
        "norad_id": 66532,
        "name": "STARLINK-35914",
        "group": "last-30-days",
        "lat": -42.49839177034011,
        "lon": -27.045750537919947,
        "alt_km": 410.86634059017615,
        "timestamp": "2025-12-09T09:46:46.421954+00:00",
        "meta_object_name": "STARLINK-35914",
        "meta_object_id": "2025-265S",
        "meta_epoch": "2025-12-09T04:00:01.998720",
        "meta_mean_motion": 15.53824246,
        "meta_eccentricity": 0.0001574,
        "meta_inclination": 42.9995,
        "meta_ra_of_asc_node": 74.8511,
        "meta_arg_of_pericenter": 267.1472,
        "meta_mean_anomaly": 87.0298,
        "meta_ephemeris_type": 0,
        "meta_classification_type": "U",
        "meta_norad_cat_id": 66532,
        "meta_element_set_no": 999,
        "meta_rev_at_epoch": 442,
        "meta_bstar": -0.033098,
        "meta_mean_motion_dot": -0.0195698,
        "meta_mean_motion_ddot": 0,
        "tle_line1": "1 66532U 25265S   25343.16668980 -.01956980  00000+0 -33098-1 0  9996",
        "tle_line2": "2 66532  42.9995  74.8511 0001574 267.1472  87.0298 15.53824246  4428"
      },
      "geometry": {
        "type": "Point",
        "coordinates": [
          -27.045750537919947,
          -42.49839177034011
        ]
      }
    },
    {
      "type": "Feature",
      "properties": {
        "norad_id": 66533,
        "name": "STARLINK-35707",
        "group": "last-30-days",
        "lat": -42.70701116814991,
        "lon": -24.459575534097024,
        "alt_km": 410.9448912721955,
        "timestamp": "2025-12-09T09:46:46.421964+00:00",
        "meta_object_name": "STARLINK-35707",
        "meta_object_id": "2025-265T",
        "meta_epoch": "2025-12-09T04:00:01.998720",
        "meta_mean_motion": 15.53816641,
        "meta_eccentricity": 0.0001474,
        "meta_inclination": 42.9993,
        "meta_ra_of_asc_node": 74.8463,
        "meta_arg_of_pericenter": 262.7039,
        "meta_mean_anomaly": 93.3969,
        "meta_ephemeris_type": 0,
        "meta_classification_type": "U",
        "meta_norad_cat_id": 66533,
        "meta_element_set_no": 999,
        "meta_rev_at_epoch": 442,
        "meta_bstar": -0.032965,
        "meta_mean_motion_dot": -0.0194938,
        "meta_mean_motion_ddot": 0,
        "tle_line1": "1 66533U 25265T   25343.16668980 -.01949380  00000+0 -32965-1 0  9995",
        "tle_line2": "2 66533  42.9993  74.8463 0001474 262.7039  93.3969 15.53816641  4427"
      },
      "geometry": {
        "type": "Point",
        "coordinates": [
          -24.459575534097024,
          -42.70701116814991
        ]
      }
    },
    {
      "type": "Feature",
      "properties": {
        "norad_id": 66534,
        "name": "STARLINK-35976",
        "group": "last-30-days",
        "lat": -42.85769309837831,
        "lon": -21.864156273374867,
        "alt_km": 410.8789791916797,
        "timestamp": "2025-12-09T09:46:46.421977+00:00",
        "meta_object_name": "STARLINK-35976",
        "meta_object_id": "2025-265U",
        "meta_epoch": "2025-12-09T04:00:01.998720",
        "meta_mean_motion": 15.53823482,
        "meta_eccentricity": 0.0001571,
        "meta_inclination": 43.0002,
        "meta_ra_of_asc_node": 74.8419,
        "meta_arg_of_pericenter": 265.7133,
        "meta_mean_anomaly": 92.3013,
        "meta_ephemeris_type": 0,
        "meta_classification_type": "U",
        "meta_norad_cat_id": 66534,
        "meta_element_set_no": 999,
        "meta_rev_at_epoch": 442,
        "meta_bstar": -0.033118,
        "meta_mean_motion_dot": -0.01957969,
        "meta_mean_motion_ddot": 0,
        "tle_line1": "1 66534U 25265U   25343.16668980 -.01957969  00000+0 -33118-1 0  9999",
        "tle_line2": "2 66534  43.0002  74.8419 0001571 265.7133  92.3013 15.53823482  4428"
      },
      "geometry": {
        "type": "Point",
        "coordinates": [
          -21.864156273374867,
          -42.85769309837831
        ]
      }
    },
    {
      "type": "Feature",
      "properties": {
        "norad_id": 66535,
        "name": "STARLINK-35514",
        "group": "last-30-days",
        "lat": -42.9485145212334,
        "lon": -19.254713730026772,
        "alt_km": 410.9567306479903,
        "timestamp": "2025-12-09T09:46:46.421987+00:00",
        "meta_object_name": "STARLINK-35514",
        "meta_object_id": "2025-265V",
        "meta_epoch": "2025-12-09T04:00:01.998720",
        "meta_mean_motion": 15.53822379,
        "meta_eccentricity": 0.0001473,
        "meta_inclination": 43.0002,
        "meta_ra_of_asc_node": 74.8369,
        "meta_arg_of_pericenter": 261.9733,
        "meta_mean_anomaly": 97.9604,
        "meta_ephemeris_type": 0,
        "meta_classification_type": "U",
        "meta_norad_cat_id": 66535,
        "meta_element_set_no": 999,
        "meta_rev_at_epoch": 442,
        "meta_bstar": -0.033113,
        "meta_mean_motion_dot": -0.01957566,
        "meta_mean_motion_ddot": 0,
        "tle_line1": "1 66535U 25265V   25343.16668980 -.01957566  00000+0 -33113-1 0  9998",
        "tle_line2": "2 66535  43.0002  74.8369 0001473 261.9733  97.9604 15.53822379  4429"
      },
      "geometry": {
        "type": "Point",
        "coordinates": [
          -19.254713730026772,
          -42.9485145212334
        ]
      }
    },
    {
      "type": "Feature",
      "properties": {
        "norad_id": 66536,
        "name": "STARLINK-35640",
        "group": "last-30-days",
        "lat": -42.979796963604166,
        "lon": -16.65106023312442,
        "alt_km": 410.84111788683094,
        "timestamp": "2025-12-09T09:46:46.421997+00:00",
        "meta_object_name": "STARLINK-35640",
        "meta_object_id": "2025-265W",
        "meta_epoch": "2025-12-09T04:00:01.998720",
        "meta_mean_motion": 15.53814674,
        "meta_eccentricity": 0.0001631,
        "meta_inclination": 43.0003,
        "meta_ra_of_asc_node": 74.832,
        "meta_arg_of_pericenter": 267.0629,
        "meta_mean_anomaly": 94.7868,
        "meta_ephemeris_type": 0,
        "meta_classification_type": "U",
        "meta_norad_cat_id": 66536,
        "meta_element_set_no": 999,
        "meta_rev_at_epoch": 440,
        "meta_bstar": -0.032822,
        "meta_mean_motion_dot": -0.01907217,
        "meta_mean_motion_ddot": 0,
        "tle_line1": "1 66536U 25265W   25343.16668980 -.01907217  00000+0 -32822-1 0  9993",
        "tle_line2": "2 66536  43.0003  74.8320 0001631 267.0629  94.7868 15.53814674  4409"
      },
      "geometry": {
        "type": "Point",
        "coordinates": [
          -16.65106023312442,
          -42.979796963604166
        ]
      }
    },
    {
      "type": "Feature",
      "properties": {
        "norad_id": 66537,
        "name": "STARLINK-35582",
        "group": "last-30-days",
        "lat": -42.95153554347394,
        "lon": -14.034027505443584,
        "alt_km": 410.92102039706515,
        "timestamp": "2025-12-09T09:46:46.422008+00:00",
        "meta_object_name": "STARLINK-35582",
        "meta_object_id": "2025-265X",
        "meta_epoch": "2025-12-09T04:00:01.998720",
        "meta_mean_motion": 15.53818802,
        "meta_eccentricity": 0.0001538,
        "meta_inclination": 43.0004,
        "meta_ra_of_asc_node": 74.8273,
        "meta_arg_of_pericenter": 260.8764,
        "meta_mean_anomaly": 102.8901,
        "meta_ephemeris_type": 0,
        "meta_classification_type": "U",
        "meta_norad_cat_id": 66537,
        "meta_element_set_no": 999,
        "meta_rev_at_epoch": 442,
        "meta_bstar": -0.032939,
        "meta_mean_motion_dot": -0.01948169,
        "meta_mean_motion_ddot": 0,
        "tle_line1": "1 66537U 25265X   25343.16668980 -.01948169  00000+0 -32939-1 0  9994",
        "tle_line2": "2 66537  43.0004  74.8273 0001538 260.8764 102.8901 15.53818802  4423"
      },
      "geometry": {
        "type": "Point",
        "coordinates": [
          -14.034027505443584,
          -42.95153554347394
        ]
      }
    }
  ]
}